{"type": "FeatureCollection", "features": [ {"type": "Feature", "properties": {"norad_id": 66333, "name": "STARLINK-35400", "group": "last-30-days", "lat": 42.036436319030024, "lon": 117.56687484216312, "alt_km": 408.9248704542515, "timestamp": "2025-12-02T21:34:00.040670+00:00", "meta": {"OBJECT_NAME": "STARLINK-35400", "OBJECT_ID": "2025-253Q", "EPOCH": "2025-12-02T05:46:06.661632", "MEAN_MOTION": 15.50632789, "ECCENTRICITY": 0.0001606, "INCLINATION": 43.0007, "RA_OF_ASC_NODE": 46.0732, "ARG_OF_PERICENTER": 261.218, "MEAN_ANOMALY": 98.8498, "EPHEMERIS_TYPE": 0, "CLASSIFICATION_TYPE": "U", "NORAD_CAT_ID": 66333, "ELEMENT_SET_NO": 999, "REV_AT_EPOCH": 530, "BSTAR": 0.0015089, "MEAN_MOTION_DOT": 0.00089367, "MEAN_MOTION_DDOT": 0}, "tle": {"line1": "1 66333U 25253Q   25336.24035488  .00089367  00000+0  15089-2 0  9998", "line2": "2 66333  43.0007  46.0732 0001606 261.2180  98.8498 15.50632789  5302"}}, "geometry": {"type": "Point", "coordinates": [117.56687484216312, 42.036436319030024]}}, {"type": "Feature", "properties": {"norad_id": 66334, "name": "STARLINK-35407", "group": "last-30-days", "lat": 40.47853935335287, "lon": 108.56648785138091, "alt_km": 408.97506464441267, "timestamp": "2025-12-02T21:34:00.040680+00:00", "meta": {"OBJECT_NAME": "STARLINK-35407", "OBJECT_ID": "2025-253R", "EPOCH": "2025-12-02T05:47:54.704832", "MEAN_MOTION": 15.50606846, "ECCENTRICITY": 0.000182, "INCLINATION": 43.0002, "RA_OF_ASC_NODE": 46.0853, "ARG_OF_PERICENTER": 277.7851, "MEAN_ANOMALY": 82.2803, "EPHEMERIS_TYPE": 0, "CLASSIFICATION_TYPE": "U", "NORAD_CAT_ID": 66334, "ELEMENT_SET_NO": 999, "REV_AT_EPOCH": 530, "BSTAR": 0.0026112, "MEAN_MOTION_DOT": 0.00156096, "MEAN_MOTION_DDOT": 0}, "tle": {"line1": "1 66334U 25253R   25336.24160538  .00156096  00000+0  26112-2 0  9997", "line2": "2 66334  43.0002  46.0853 0001820 277.7851  82.2803 15.50606846  5309"}}, "geometry": {"type": "Point", "coordinates": [108.56648785138091, 40.47853935335287]}}, {"type": "Feature", "properties": {"norad_id": 66335, "name": "STARLINK-35417", "group": "last-30-days", "lat": -27.982399070288526, "lon": 7.762072954990851, "alt_km": 446.02153474240185, "timestamp": "2025-12-02T21:34:00.040691+00:00", "meta": {"OBJECT_NAME": "STARLINK-35417", "OBJECT_ID": "2025-253S", "EPOCH": "2025-12-02T12:00:05.998752", "MEAN_MOTION": 15.40644808, "ECCENTRICITY": 0.0001277, "INCLINATION": 43.0008, "RA_OF_ASC_NODE": 44.8201, "ARG_OF_PERICENTER": 271.575, "MEAN_ANOMALY": 351.8921, "EPHEMERIS_TYPE": 0, "CLASSIFICATION_TYPE": "U", "NORAD_CAT_ID": 66335, "ELEMENT_SET_NO": 999, "REV_AT_EPOCH": 528, "BSTAR": 0.0012096, "MEAN_MOTION_DOT": 0.00050466, "MEAN_MOTION_DDOT": 0}, "tle": {"line1": "1 66335U 25253S   25336.50006943  .00050466  00000+0  12096-2 0  9996", "line2": "2 66335  43.0008  44.8201 0001277 271.5750 351.8921 15.40644808  5287"}}, "geometry": {"type": "Point", "coordinates": [7.762072954990851, -27.982399070288526]}}, {"type": "Feature", "properties": {"norad_id": 66336, "name": "STARLINK-35404", "group": "last-30-days", "lat": 42.59988359338937, "lon": 122.89222957133413, "alt_km": 408.5719713538592, "timestamp": "2025-12-02T21:34:00.040703+00:00", "meta": {"OBJECT_NAME": "STARLINK-35404", "OBJECT_ID": "2025-253T", "EPOCH": "2025-12-02T05:45:07.240032", "MEAN_MOTION": 15.50663874, "ECCENTRICITY": 0.0001575, "INCLINATION": 42.9999, "RA_OF_ASC_NODE": 46.0686, "ARG_OF_PERICENTER": 253.9948, "MEAN_ANOMALY": 106.0739, "EPHEMERIS_TYPE": 0, "CLASSIFICATION_TYPE": "U", "NORAD_CAT_ID": 66336, "ELEMENT_SET_NO": 999, "REV_AT_EPOCH": 530, "BSTAR": 0.0021834, "MEAN_MOTION_DOT": 0.00130295, "MEAN_MOTION_DDOT": 0}, "tle": {"line1": "1 66336U 25253T   25336.23966713  .00130295  00000+0  21834-2 0  9996", "line2": "2 66336  42.9999  46.0686 0001575 253.9948 106.0739 15.50663874  5305"}}, "geometry": {"type": "Point", "coordinates": [122.89222957133413, 42.59988359338937]}}, {"type": "Feature", "properties": {"norad_id": 66337, "name": "STARLINK-34783", "group": "last-30-days", "lat": -12.584873761607911, "lon": 28.602201775361205, "alt_km": 445.0777196317704, "timestamp": "2025-12-02T21:34:00.040714+00:00", "meta": {"OBJECT_NAME": "STARLINK-34783", "OBJECT_ID": "2025-253U", "EPOCH": "2025-12-02T12:00:05.998752", "MEAN_MOTION": 15.40612881, "ECCENTRICITY": 0.0001185, "INCLINATION": 43.0007, "RA_OF_ASC_NODE": 44.7603, "ARG_OF_PERICENTER": 270.9097, "MEAN_ANOMALY": 17.4567, "EPHEMERIS_TYPE": 0, "CLASSIFICATION_TYPE": "U", "NORAD_CAT_ID": 66337, "ELEMENT_SET_NO": 999, "REV_AT_EPOCH": 533, "BSTAR": 0.0017637, "MEAN_MOTION_DOT": 0.00073872, "MEAN_MOTION_DDOT": 0}, "tle": {"line1": "1 66337U 25253U   25336.50006943  .00073872  00000+0  17637-2 0  9990", "line2": "2 66337  43.0007  44.7603 0001185 270.9097  17.4567 15.40612881  5331"}}, "geometry": {"type": "Point", "coordinates": [28.602201775361205, -12.584873761607911]}}, {"type": "Feature", "properties": {"norad_id": 66338, "name": "STARLINK-35477", "group": "last-30-days", "lat": -34.384119870474, "lon": -4.697189524347002, "alt_km": 446.7752959677291, "timestamp": "2025-12-02T21:34:00.040725+00:00", "meta": {"OBJECT_NAME": "STARLINK-35477", "OBJECT_ID": "2025-253V", "EPOCH": "2025-12-02T12:00:05.998752", "MEAN_MOTION": 15.40639376, "ECCENTRICITY": 6.62e-05, "INCLINATION": 43.0005, "RA_OF_ASC_NODE": 44.8511, "ARG_OF_PERICENTER": 254.3783, "MEAN_ANOMALY": 356.6465, "EPHEMERIS_TYPE": 0, "CLASSIFICATION_TYPE": "U", "NORAD_CAT_ID": 66338, "ELEMENT_SET_NO": 999, "REV_AT_EPOCH": 538, "BSTAR": 0.0011431, "MEAN_MOTION_DOT": 0.00047647, "MEAN_MOTION_DDOT": 0}, "tle": {"line1": "1 66338U 25253V   25336.50006943  .00047647  00000+0  11431-2 0  9998", "line2": "2 66338  43.0005  44.8511 0000662 254.3783 356.6465 15.40639376  5384"}}, "geometry": {"type": "Point", "coordinates": [-4.697189524347002, -34.384119870474]}}, {"type": "Feature", "properties": {"norad_id": 66339, "name": "STARLINK-35443", "group": "last-30-days", "lat": 42.77636888869521, "lon": 125.37595208876924, "alt_km": 424.67507866830965, "timestamp": "2025-12-02T21:34:00.040735+00:00", "meta": {"OBJECT_NAME": "STARLINK-35443", "OBJECT_ID": "2025-253W", "EPOCH": "2025-12-02T12:00:05.998752", "MEAN_MOTION": 15.47063659, "ECCENTRICITY": 0.0001398, "INCLINATION": 43.0005, "RA_OF_ASC_NODE": 44.5274, "ARG_OF_PERICENTER": 274.1341, "MEAN_ANOMALY": 109.8171, "EPHEMERIS_TYPE": 0, "CLASSIFICATION_TYPE": "U", "NORAD_CAT_ID": 66339, "ELEMENT_SET_NO": 999, "REV_AT_EPOCH": 533, "BSTAR": -0.043461, "MEAN_MOTION_DOT": -0.02009422, "MEAN_MOTION_DDOT": 0}, "tle": {"line1": "1 66339U 25253W   25336.50006943 -.02009422  00000+0 -43461-1 0  9999", "line2": "2 66339  43.0005  44.5274 0001398 274.1341 109.8171 15.47063659  5334"}}, "geometry": {"type": "Point", "coordinates": [125.37595208876924, 42.77636888869521]}}, {"type": "Feature", "properties": {"norad_id": 66340, "name": "STARLINK-35218", "group": "last-30-days", "lat": 42.781292635886004, "lon": 125.46213673309732, "alt_km": 408.6607505445081, "timestamp": "2025-12-02T21:34:00.040746+00:00", "meta": {"OBJECT_NAME": "STARLINK-35218", "OBJECT_ID": "2025-253X", "EPOCH": "2025-12-02T05:44:37.704192", "MEAN_MOTION": 15.50658934, "ECCENTRICITY": 0.0001723, "INCLINATION": 43.0002, "RA_OF_ASC_NODE": 46.0659, "ARG_OF_PERICENTER": 259.1035, "MEAN_ANOMALY": 100.9632, "EPHEMERIS_TYPE": 0, "CLASSIFICATION_TYPE": "U", "NORAD_CAT_ID": 66340, "ELEMENT_SET_NO": 999, "REV_AT_EPOCH": 530, "BSTAR": 0.0021881, "MEAN_MOTION_DOT": 0.00130561, "MEAN_MOTION_DDOT": 0}, "tle": {"line1": "1 66340U 25253X   25336.23932528  .00130561  00000+0  21881-2 0  9996", "line2": "2 66340  43.0002  46.0659 0001723 259.1035 100.9632 15.50658934  5303"}}, "geometry": {"type": "Point", "coordinates": [125.46213673309732, 42.781292635886004]}}, {"type": "Feature", "properties": {"norad_id": 66341, "name": "STARLINK-35522", "group": "last-30-days", "lat": 41.679922497111676, "lon": 115.06211833871635, "alt_km": 408.95529402116335, "timestamp": "2025-12-02T21:34:00.040756+00:00", "meta": {"OBJECT_NAME": "STARLINK-35522", "OBJECT_ID": "2025-253Y", "EPOCH": "2025-12-02T05:46:36.245856", "MEAN_MOTION": 15.50639914, "ECCENTRICITY": 0.0001588, "INCLINATION": 43.0002, "RA_OF_ASC_NODE": 46.079, "ARG_OF_PERICENTER": 262.4563, "MEAN_ANOMALY": 97.6117, "EPHEMERIS_TYPE": 0, "CLASSIFICATION_TYPE": "U", "NORAD_CAT_ID": 66341, "ELEMENT_SET_NO": 999, "REV_AT_EPOCH": 530, "BSTAR": 0.0014366, "MEAN_MOTION_DOT": 0.00085041, "MEAN_MOTION_DDOT": 0}, "tle": {"line1": "1 66341U 25253Y   25336.24069729  .00085041  00000+0  14366-2 0  9994", "line2": "2 66341  43.0002  46.0790 0001588 262.4563  97.6117 15.50639914  5309"}}, "geometry": {"type": "Point", "coordinates": [115.06211833871635, 41.679922497111676]}}, {"type": "Feature", "properties": {"norad_id": 66342, "name": "STARLINK-35535", "group": "last-30-days", "lat": 28.037630040808402, "lon": 77.16429215481541, "alt_km": 440.071764549979, "timestamp": "2025-12-02T21:34:00.040767+00:00", "meta": {"OBJECT_NAME": "STARLINK-35535", "OBJECT_ID": "2025-253Z", "EPOCH": "2025-12-02T12:00:05.998752", "MEAN_MOTION": 15.4064157, "ECCENTRICITY": 0.0001245, "INCLINATION": 43.0005, "RA_OF_ASC_NODE": 44.6073, "ARG_OF_PERICENTER": 280.9981, "MEAN_ANOMALY": 69.5447, "EPHEMERIS_TYPE": 0, "CLASSIFICATION_TYPE": "U", "NORAD_CAT_ID": 66342, "ELEMENT_SET_NO": 999, "REV_AT_EPOCH": 528, "BSTAR": 0.0011762, "MEAN_MOTION_DOT": 0.0004905, "MEAN_MOTION_DDOT": 0}, "tle": {"line1": "1 66342U 25253Z   25336.50006943  .00049050  00000+0  11762-2 0  9990", "line2": "2 66342  43.0005  44.6073 0001245 280.9981  69.5447 15.40641570  5281"}}, "geometry": {"type": "Point", "coordinates": [77.16429215481541, 28.037630040808402]}}]}